IRIDIUM 144             
1 43249U 18030A   23339.44888602  .00000498  00000+0  17073-3 0  9995
2 43249  86.3946 316.8932 0002260  87.7890 272.3564 14.34223802297591
IRIDIUM 149             
1 43250U 18030B   23339.45522682  .00000503  00000+0  17267-3 0  9993
2 43250  86.3944 316.8679 0002411  84.3492 275.7979 14.34215506297610
IRIDIUM 157             
1 43251U 18030C   23339.47425564  .00000489  00000+0  16753-3 0  9999
2 43251  86.3947 316.8925 0002003  94.9321 265.2104 14.34219911297598
IRIDIUM 140             
1 43252U 18030D   23339.49327173  .00000426  00000+0  14518-3 0  9997
2 43252  86.3932 316.9004 0002516  96.9013 263.2468 14.34212656297658
IRIDIUM 145             
1 43253U 18030E   23339.48059179  .00000465  00000+0  15899-3 0  9991
2 43253  86.3933 316.8801 0002094  94.9401 265.2034 14.34216540297583
IRIDIUM 146             
1 43254U 18030F   23339.46156593  .00000158  00000+0  49368-4 0  9996
2 43254  86.3947 316.9018 0002305  81.8816 278.2642 14.34216919297590
IRIDIUM 148             
1 43255U 18030G   23339.42986560 -.00000444  00000+0 -16576-3 0  9992
2 43255  86.3943 316.9449 0002047  80.3076 279.8351 14.34218392297625
IRIDIUM 142             
1 43256U 18030H   23339.46791055  .00000363  00000+0  12272-3 0  9997
2 43256  86.3941 316.8517 0002213  84.5960 275.5488 14.34216105297592
